{"type": "FeatureCollection", "features": [ {"type": "Feature", "properties": {"norad_id": 66615, "name": "STARLINK-35988", "group": "last-30-days", "lat": -10.370287661912712, "lon": 119.66695826456454, "alt_km": 444.6495180401398, "timestamp": "2025-12-23T09:49:05.795542+00:00", "meta": {"OBJECT_NAME": "STARLINK-35988", "OBJECT_ID": "2025-270AD", "EPOCH": "2025-12-22T18:19:33.981600", "MEAN_MOTION": 15.40722173, "ECCENTRICITY": 9.453e-05, "INCLINATION": 42.9966, "RA_OF_ASC_NODE": 134.7149, "ARG_OF_PERICENTER": 267.1486, "MEAN_ANOMALY": 92.9263, "EPHEMERIS_TYPE": 0, "CLASSIFICATION_TYPE": "U", "NORAD_CAT_ID": 66615, "ELEMENT_SET_NO": 999, "REV_AT_EPOCH": 573, "BSTAR": 0.00099727967, "MEAN_MOTION_DOT": 0.00041613, "MEAN_MOTION_DDOT": 0}, "tle": {"line1": "1 66615U 25270AD  25356.76358775  .00041613  00000+0  99728-3 0  9991", "line2": "2 66615  42.9966 134.7149 0000945 267.1486  92.9263 15.40722173  5731"}}, "geometry": {"type": "Point", "coordinates": [119.66695826456454, -10.370287661912712]}}, {"type": "Feature", "properties": {"norad_id": 66616, "name": "STARLINK-35391", "group": "last-30-days", "lat": 42.696577249505815, "lon": -147.30628245534672, "alt_km": 437.89234371550265, "timestamp": "2025-12-23T09:49:05.795552+00:00", "meta": {"OBJECT_NAME": "STARLINK-35391", "OBJECT_ID": "2025-270AE", "EPOCH": "2025-12-22T00:00:00.999648", "MEAN_MOTION": 15.40663019, "ECCENTRICITY": 0.00012463, "INCLINATION": 43.0002, "RA_OF_ASC_NODE": 138.8723, "ARG_OF_PERICENTER": 281.4949, "MEAN_ANOMALY": 257.7879, "EPHEMERIS_TYPE": 0, "CLASSIFICATION_TYPE": "U", "NORAD_CAT_ID": 66616, "ELEMENT_SET_NO": 999, "REV_AT_EPOCH": 599, "BSTAR": 0.00066447709, "MEAN_MOTION_DOT": 0.00027519, "MEAN_MOTION_DDOT": 0}, "tle": {"line1": "1 66616U 25270AE  25356.00001157  .00027519  00000+0  66448-3 0  9990", "line2": "2 66616  43.0002 138.8723 0001246 281.4949 257.7879 15.40663019  5991"}}, "geometry": {"type": "Point", "coordinates": [-147.30628245534672, 42.696577249505815]}}, {"type": "Feature", "properties": {"norad_id": 66617, "name": "STARLINK-35940", "group": "last-30-days", "lat": -46.97342450030475, "lon": 83.36793438847309, "alt_km": 451.76543468219006, "timestamp": "2025-12-23T09:49:05.795563+00:00", "meta": {"OBJECT_NAME": "STARLINK-35940", "OBJECT_ID": "2025-271A", "EPOCH": "2025-12-22T20:04:58.654272", "MEAN_MOTION": 15.39621555, "ECCENTRICITY": 0.0001951, "INCLINATION": 53.1592, "RA_OF_ASC_NODE": 139.507, "ARG_OF_PERICENTER": 26.2753, "MEAN_ANOMALY": 333.835, "EPHEMERIS_TYPE": 0, "CLASSIFICATION_TYPE": "U", "NORAD_CAT_ID": 66617, "ELEMENT_SET_NO": 999, "REV_AT_EPOCH": 576, "BSTAR": 0.0014579177, "MEAN_MOTION_DOT": 0.00058368, "MEAN_MOTION_DDOT": 0}, "tle": {"line1": "1 66617U 25271A   25356.83678998  .00058368  00000+0  14579-2 0  9999", "line2": "2 66617  53.1592 139.5070 0001951  26.2753 333.8350 15.39621555  5764"}}, "geometry": {"type": "Point", "coordinates": [83.36793438847309, -46.97342450030475]}}, {"type": "Feature", "properties": {"norad_id": 66618, "name": "STARLINK-35970", "group": "last-30-days", "lat": -39.97323672219329, "lon": -4.851824402376181, "alt_km": 434.9305389039073, "timestamp": "2025-12-23T09:49:05.795573+00:00", "meta": {"OBJECT_NAME": "STARLINK-35970", "OBJECT_ID": "2025-271B", "EPOCH": "2025-12-22T22:00:03.000096", "MEAN_MOTION": 15.45516027, "ECCENTRICITY": 0.00013396, "INCLINATION": 53.16, "RA_OF_ASC_NODE": 138.5509, "ARG_OF_PERICENTER": 63.0788, "MEAN_ANOMALY": 309.044, "EPHEMERIS_TYPE": 0, "CLASSIFICATION_TYPE": "U", "NORAD_CAT_ID": 66618, "ELEMENT_SET_NO": 999, "REV_AT_EPOCH": 587, "BSTAR": 0.0014163773, "MEAN_MOTION_DOT": 0.00069244, "MEAN_MOTION_DDOT": 0}, "tle": {"line1": "1 66618U 25271B   25356.91670139  .00069244  00000+0  14164-2 0  9993", "line2": "2 66618  53.1600 138.5509 0001339  63.0788 309.0440 15.45516027  5879"}}, "geometry": {"type": "Point", "coordinates": [-4.851824402376181, -39.97323672219329]}}, {"type": "Feature", "properties": {"norad_id": 66619, "name": "STARLINK-35951", "group": "last-30-days", "lat": 11.282267169738166, "lon": -52.25285403508806, "alt_km": 446.6591058978456, "timestamp": "2025-12-23T09:49:05.795586+00:00", "meta": {"OBJECT_NAME": "STARLINK-35951", "OBJECT_ID": "2025-271C", "EPOCH": "2025-12-22T22:00:03.000096", "MEAN_MOTION": 15.39561339, "ECCENTRICITY": 0.00015902, "INCLINATION": 53.1607, "RA_OF_ASC_NODE": 138.6694, "ARG_OF_PERICENTER": 68.6459, "MEAN_ANOMALY": 246.4459, "EPHEMERIS_TYPE": 0, "CLASSIFICATION_TYPE": "U", "NORAD_CAT_ID": 66619, "ELEMENT_SET_NO": 999, "REV_AT_EPOCH": 587, "BSTAR": 0.0014465435, "MEAN_MOTION_DOT": 0.00057789, "MEAN_MOTION_DDOT": 0}, "tle": {"line1": "1 66619U 25271C   25356.91670139  .00057789  00000+0  14465-2 0  9999", "line2": "2 66619  53.1607 138.6694 0001590  68.6459 246.4459 15.39561339  5871"}}, "geometry": {"type": "Point", "coordinates": [-52.25285403508806, 11.282267169738166]}}, {"type": "Feature", "properties": {"norad_id": 66620, "name": "STARLINK-35936", "group": "last-30-days", "lat": 46.83576910157891, "lon": -96.61554451038728, "alt_km": 440.5663278309421, "timestamp": "2025-12-23T09:49:05.795599+00:00", "meta": {"OBJECT_NAME": "STARLINK-35936", "OBJECT_ID": "2025-271D", "EPOCH": "2025-12-22T22:00:03.000096", "MEAN_MOTION": 15.39583073, "ECCENTRICITY": 8.69e-05, "INCLINATION": 53.1604, "RA_OF_ASC_NODE": 138.7737, "ARG_OF_PERICENTER": 60.3244, "MEAN_ANOMALY": 203.2254, "EPHEMERIS_TYPE": 0, "CLASSIFICATION_TYPE": "U", "NORAD_CAT_ID": 66620, "ELEMENT_SET_NO": 999, "REV_AT_EPOCH": 587, "BSTAR": 0.0012909575, "MEAN_MOTION_DOT": 0.00051524, "MEAN_MOTION_DDOT": 0}, "tle": {"line1": "1 66620U 25271D   25356.91670139  .00051524  00000+0  12910-2 0  9995", "line2": "2 66620  53.1604 138.7737 0000869  60.3244 203.2254 15.39583073  5871"}}, "geometry": {"type": "Point", "coordinates": [-96.61554451038728, 46.83576910157891]}}, {"type": "Feature", "properties": {"norad_id": 66621, "name": "STARLINK-35847", "group": "last-30-days", "lat": -42.11220217498475, "lon": -1.132814869150247, "alt_km": 435.01199460572207, "timestamp": "2025-12-23T09:49:05.795609+00:00", "meta": {"OBJECT_NAME": "STARLINK-35847", "OBJECT_ID": "2025-271E", "EPOCH": "2025-12-22T22:00:03.000096", "MEAN_MOTION": 15.45516472, "ECCENTRICITY": 0.00013053, "INCLINATION": 53.1599, "RA_OF_ASC_NODE": 138.5435, "ARG_OF_PERICENTER": 65.3488, "MEAN_ANOMALY": 310.3133, "EPHEMERIS_TYPE": 0, "CLASSIFICATION_TYPE": "U", "NORAD_CAT_ID": 66621, "ELEMENT_SET_NO": 999, "REV_AT_EPOCH": 587, "BSTAR": 0.001342937, "MEAN_MOTION_DOT": 0.00065601, "MEAN_MOTION_DDOT": 0}, "tle": {"line1": "1 66621U 25271E   25356.91670139  .00065601  00000+0  13429-2 0  9993", "line2": "2 66621  53.1599 138.5435 0001305  65.3488 310.3133 15.45516472  5871"}}, "geometry": {"type": "Point", "coordinates": [-1.132814869150247, -42.11220217498475]}}, {"type": "Feature", "properties": {"norad_id": 66622, "name": "STARLINK-35950", "group": "last-30-days", "lat": 28.91581209232899, "lon": 161.0667055503952, "alt_km": 443.8618990768364, "timestamp": "2025-12-23T09:49:05.795621+00:00", "meta": {"OBJECT_NAME": "STARLINK-35950", "OBJECT_ID": "2025-271F", "EPOCH": "2025-12-22T19:38:12.214752", "MEAN_MOTION": 15.39675938, "ECCENTRICITY": 0.00012221, "INCLINATION": 53.1612, "RA_OF_ASC_NODE": 139.3883, "ARG_OF_PERICENTER": 274.5298, "MEAN_ANOMALY": 85.5568, "EPHEMERIS_TYPE": 0, "CLASSIFICATION_TYPE": "U", "NORAD_CAT_ID": 66622, "ELEMENT_SET_NO": 999, "REV_AT_EPOCH": 576, "BSTAR": 0.0012007732, "MEAN_MOTION_DOT": 0.00048022, "MEAN_MOTION_DDOT": 0}, "tle": {"line1": "1 66622U 25271F   25356.81819693  .00048022  00000+0  12008-2 0  9993", "line2": "2 66622  53.1612 139.3883 0001222 274.5298  85.5568 15.39675938  5762"}}, "geometry": {"type": "Point", "coordinates": [161.0667055503952, 28.91581209232899]}}, {"type": "Feature", "properties": {"norad_id": 66623, "name": "STARLINK-35920", "group": "last-30-days", "lat": -11.597520711547011, "lon": 127.85352186711955, "alt_km": 449.4748136621265, "timestamp": "2025-12-23T09:49:05.795632+00:00", "meta": {"OBJECT_NAME": "STARLINK-35920", "OBJECT_ID": "2025-271G", "EPOCH": "2025-12-22T19:51:35.812512", "MEAN_MOTION": 15.39628468, "ECCENTRICITY": 5.462e-05, "INCLINATION": 53.1605, "RA_OF_ASC_NODE": 139.4454, "ARG_OF_PERICENTER": 86.5592, "MEAN_ANOMALY": 273.5475, "EPHEMERIS_TYPE": 0, "CLASSIFICATION_TYPE": "U", "NORAD_CAT_ID": 66623, "ELEMENT_SET_NO": 999, "REV_AT_EPOCH": 576, "BSTAR": 0.00066585143, "MEAN_MOTION_DOT": 0.00026333, "MEAN_MOTION_DDOT": 0}, "tle": {"line1": "1 66623U 25271G   25356.82749783  .00026333  00000+0  66585-3 0  9998", "line2": "2 66623  53.1605 139.4454 0000546  86.5592 273.5475 15.39628468  5768"}}, "geometry": {"type": "Point", "coordinates": [127.85352186711955, -11.597520711547011]}}, {"type": "Feature", "properties": {"norad_id": 66624, "name": "STARLINK-35927", "group": "last-30-days", "lat": -6.506489712742763, "lon": -38.78959945175614, "alt_km": 440.30329505221107, "timestamp": "2025-12-23T09:49:05.795643+00:00", "meta": {"OBJECT_NAME": "STARLINK-35927", "OBJECT_ID": "2025-271H", "EPOCH": "2025-12-22T22:00:03.000096", "MEAN_MOTION": 15.44821393, "ECCENTRICITY": 0.00010874, "INCLINATION": 53.1606, "RA_OF_ASC_NODE": 138.6405, "ARG_OF_PERICENTER": 80.0075, "MEAN_ANOMALY": 250.0507, "EPHEMERIS_TYPE": 0, "CLASSIFICATION_TYPE": "U", "NORAD_CAT_ID": 66624, "ELEMENT_SET_NO": 999, "REV_AT_EPOCH": 587, "BSTAR": -0.048316306, "MEAN_MOTION_DOT": -0.02046076, "MEAN_MOTION_DDOT": 0}, "tle": {"line1": "1 66624U 25271H   25356.91670139 -.02046076  00000+0 -48316-1 0  9997", "line2": "2 66624  53.1606 138.6405 0001087  80.0075 250.0507 15.44821393  5879"}}, "geometry": {"type": "Point", "coordinates": [-38.78959945175614, -6.506489712742763]}}]}